STARLINK-36931          
1 68000U 26039Q   26078.66668981 -.01852826  00000+0 -24453-1 0  9999
2 68000  42.9996 354.1273 0001409 250.2787  31.4250 15.60724046  4481
STARLINK-36903          
1 68001U 26039R   26078.66668981 -.01865544  00000+0 -28896-1 0  9996
2 68001  43.0003 354.3235 0001253 254.9820 307.1921 15.56565631  4485
STARLINK-36898          
1 68002U 26039S   26078.66668981 -.01857898  00000+0 -25606-1 0  9996
2 68002  42.9995 354.1465 0001410 247.0577  26.4668 15.59613693  4488
STARLINK-36862          
1 68003U 26039T   26078.66668981 -.01854860  00000+0 -27730-1 0  9993
2 68003  42.9994 354.2314 0001247 248.6088 350.5007 15.57483930  4489
STARLINK-36888          
1 68004U 26039U   26078.66668981 -.01866328  00000+0 -28266-1 0  9991
2 68004  43.0000 354.2810 0001354 249.8513 329.4617 15.57161526  4482
STARLINK-36910          
1 68005U 26039V   26078.66668981 -.01858906  00000+0 -24481-1 0  9990
2 68005  42.9994 354.0808 0001437 247.4020  52.4936 15.60788577  4489
STARLINK-36889          
1 68006U 26039W   26078.66668981 -.01867408  00000+0 -30068-1 0  9996
2 68006  43.0000 354.3262 0001394 256.5325 303.9117 15.55534044  4485
STARLINK-36592          
1 68007U 26039X   26078.66668981 -.01856419  00000+0 -25300-1 0  9990
2 68007  42.9995 354.0889 0001425 248.2785  47.9537 15.59902333  4487
STARLINK-36911          
1 68008U 26039Y   26078.66668981 -.01854738  00000+0 -26776-1 0  9991
2 68008  42.9995 354.1518 0001312 248.8163  22.1664 15.58401470  4480
STARLINK-36956          
1 68009U 26039Z   26078.66668981 -.01853208  00000+0 -27949-1 0  9996
2 68009  42.9998 354.2004 0001181 252.2305 359.0772 15.57250069  4483
STARLINK-36953          
1 68010U 26039AA  26078.66668981 -.01896134  00000+0 -21447-1 0  9990
2 68010  42.9997 353.8435 0001467 260.3597 133.9578 15.64696911  4488
STARLINK-36991          
1 68011U 26039AB  26078.66668981  .00074775  00000+0  12699-2 0  9997
2 68011  42.9998 354.8289 0002332 245.6532 110.5512 15.50541927  4485
STARLINK-36936          
1 68012U 26039AC  26078.66668981 -.01855005  00000+0 -28211-1 0  9990
2 68012  42.9995 354.1572 0001399 250.4903  17.4958 15.57030883  4489
STARLINK-36967          
1 68013U 26039AD  26078.66668981  .00079405  00000+0  13480-2 0  9993
2 68013  42.9996 354.7544 0001460 263.5968 122.6155 15.50529511  4483
STARLINK-36985          
1 68014U 26039AE  26078.66668981 -.01900255  00000+0 -21076-1 0  9992
2 68014  42.9994 353.8042 0001553 261.0634 148.9861 15.65189446  4481
STARLINK-36335          
1 68015U 26040A   26078.66668981 -.01913784  00000+0 -11633-1 0  9994
2 68015  97.2778  27.5936 0001561 112.7123 305.9618 15.80458343  3987
