[{"OBJECT_NAME":"STARLINK-36931","OBJECT_ID":"2026-039Q","EPOCH":"2026-03-19T16:00:01.999584","MEAN_MOTION":15.60724046,"ECCENTRICITY":0.0001409,"INCLINATION":42.9996,"RA_OF_ASC_NODE":354.1273,"ARG_OF_PERICENTER":250.2787,"MEAN_ANOMALY":31.425,"EPHEMERIS_TYPE":0,"CLASSIFICATION_TYPE":"U","NORAD_CAT_ID":68000,"ELEMENT_SET_NO":999,"REV_AT_EPOCH":448,"BSTAR":-0.024453,"MEAN_MOTION_DOT":-0.01852826,"MEAN_MOTION_DDOT":0},{"OBJECT_NAME":"STARLINK-36903","OBJECT_ID":"2026-039R","EPOCH":"2026-03-19T16:00:01.999584","MEAN_MOTION":15.56565631,"ECCENTRICITY":0.0001253,"INCLINATION":43.0003,"RA_OF_ASC_NODE":354.3235,"ARG_OF_PERICENTER":254.982,"MEAN_ANOMALY":307.1921,"EPHEMERIS_TYPE":0,"CLASSIFICATION_TYPE":"U","NORAD_CAT_ID":68001,"ELEMENT_SET_NO":999,"REV_AT_EPOCH":448,"BSTAR":-0.028896,"MEAN_MOTION_DOT":-0.01865544,"MEAN_MOTION_DDOT":0},{"OBJECT_NAME":"STARLINK-36898","OBJECT_ID":"2026-039S","EPOCH":"2026-03-19T16:00:01.999584","MEAN_MOTION":15.59613693,"ECCENTRICITY":0.000141,"INCLINATION":42.9995,"RA_OF_ASC_NODE":354.1465,"ARG_OF_PERICENTER":247.0577,"MEAN_ANOMALY":26.4668,"EPHEMERIS_TYPE":0,"CLASSIFICATION_TYPE":"U","NORAD_CAT_ID":68002,"ELEMENT_SET_NO":999,"REV_AT_EPOCH":448,"BSTAR":-0.025606,"MEAN_MOTION_DOT":-0.01857898,"MEAN_MOTION_DDOT":0},{"OBJECT_NAME":"STARLINK-36862","OBJECT_ID":"2026-039T","EPOCH":"2026-03-19T16:00:01.999584","MEAN_MOTION":15.5748393,"ECCENTRICITY":0.0001247,"INCLINATION":42.9994,"RA_OF_ASC_NODE":354.2314,"ARG_OF_PERICENTER":248.6088,"MEAN_ANOMALY":350.5007,"EPHEMERIS_TYPE":0,"CLASSIFICATION_TYPE":"U","NORAD_CAT_ID":68003,"ELEMENT_SET_NO":999,"REV_AT_EPOCH":448,"BSTAR":-0.02773,"MEAN_MOTION_DOT":-0.0185486,"MEAN_MOTION_DDOT":0},{"OBJECT_NAME":"STARLINK-36888","OBJECT_ID":"2026-039U","EPOCH":"2026-03-19T16:00:01.999584","MEAN_MOTION":15.57161526,"ECCENTRICITY":0.0001354,"INCLINATION":43,"RA_OF_ASC_NODE":354.281,"ARG_OF_PERICENTER":249.8513,"MEAN_ANOMALY":329.4617,"EPHEMERIS_TYPE":0,"CLASSIFICATION_TYPE":"U","NORAD_CAT_ID":68004,"ELEMENT_SET_NO":999,"REV_AT_EPOCH":448,"BSTAR":-0.028266,"MEAN_MOTION_DOT":-0.01866328,"MEAN_MOTION_DDOT":0},{"OBJECT_NAME":"STARLINK-36910","OBJECT_ID":"2026-039V","EPOCH":"2026-03-19T16:00:01.999584","MEAN_MOTION":15.60788577,"ECCENTRICITY":0.0001437,"INCLINATION":42.9994,"RA_OF_ASC_NODE":354.0808,"ARG_OF_PERICENTER":247.402,"MEAN_ANOMALY":52.4936,"EPHEMERIS_TYPE":0,"CLASSIFICATION_TYPE":"U","NORAD_CAT_ID":68005,"ELEMENT_SET_NO":999,"REV_AT_EPOCH":448,"BSTAR":-0.024481,"MEAN_MOTION_DOT":-0.01858906,"MEAN_MOTION_DDOT":0},{"OBJECT_NAME":"STARLINK-36889","OBJECT_ID":"2026-039W","EPOCH":"2026-03-19T16:00:01.999584","MEAN_MOTION":15.55534044,"ECCENTRICITY":0.0001394,"INCLINATION":43,"RA_OF_ASC_NODE":354.3262,"ARG_OF_PERICENTER":256.5325,"MEAN_ANOMALY":303.9117,"EPHEMERIS_TYPE":0,"CLASSIFICATION_TYPE":"U","NORAD_CAT_ID":68006,"ELEMENT_SET_NO":999,"REV_AT_EPOCH":448,"BSTAR":-0.030068,"MEAN_MOTION_DOT":-0.01867408,"MEAN_MOTION_DDOT":0},{"OBJECT_NAME":"STARLINK-36592","OBJECT_ID":"2026-039X","EPOCH":"2026-03-19T16:00:01.999584","MEAN_MOTION":15.59902333,"ECCENTRICITY":0.0001425,"INCLINATION":42.9995,"RA_OF_ASC_NODE":354.0889,"ARG_OF_PERICENTER":248.2785,"MEAN_ANOMALY":47.9537,"EPHEMERIS_TYPE":0,"CLASSIFICATION_TYPE":"U","NORAD_CAT_ID":68007,"ELEMENT_SET_NO":999,"REV_AT_EPOCH":448,"BSTAR":-0.0253,"MEAN_MOTION_DOT":-0.01856419,"MEAN_MOTION_DDOT":0},{"OBJECT_NAME":"STARLINK-36911","OBJECT_ID":"2026-039Y","EPOCH":"2026-03-19T16:00:01.999584","MEAN_MOTION":15.5840147,"ECCENTRICITY":0.0001312,"INCLINATION":42.9995,"RA_OF_ASC_NODE":354.1518,"ARG_OF_PERICENTER":248.8163,"MEAN_ANOMALY":22.1664,"EPHEMERIS_TYPE":0,"CLASSIFICATION_TYPE":"U","NORAD_CAT_ID":68008,"ELEMENT_SET_NO":999,"REV_AT_EPOCH":448,"BSTAR":-0.026776,"MEAN_MOTION_DOT":-0.01854738,"MEAN_MOTION_DDOT":0},{"OBJECT_NAME":"STARLINK-36956","OBJECT_ID":"2026-039Z","EPOCH":"2026-03-19T16:00:01.999584","MEAN_MOTION":15.57250069,"ECCENTRICITY":0.0001181,"INCLINATION":42.9998,"RA_OF_ASC_NODE":354.2004,"ARG_OF_PERICENTER":252.2305,"MEAN_ANOMALY":359.0772,"EPHEMERIS_TYPE":0,"CLASSIFICATION_TYPE":"U","NORAD_CAT_ID":68009,"ELEMENT_SET_NO":999,"REV_AT_EPOCH":448,"BSTAR":-0.027949,"MEAN_MOTION_DOT":-0.01853208,"MEAN_MOTION_DDOT":0},{"OBJECT_NAME":"STARLINK-36953","OBJECT_ID":"2026-039AA","EPOCH":"2026-03-19T16:00:01.999584","MEAN_MOTION":15.64696911,"ECCENTRICITY":0.0001467,"INCLINATION":42.9997,"RA_OF_ASC_NODE":353.8435,"ARG_OF_PERICENTER":260.3597,"MEAN_ANOMALY":133.9578,"EPHEMERIS_TYPE":0,"CLASSIFICATION_TYPE":"U","NORAD_CAT_ID":68010,"ELEMENT_SET_NO":999,"REV_AT_EPOCH":448,"BSTAR":-0.021447,"MEAN_MOTION_DOT":-0.01896134,"MEAN_MOTION_DDOT":0},{"OBJECT_NAME":"STARLINK-36991","OBJECT_ID":"2026-039AB","EPOCH":"2026-03-19T16:00:01.999584","MEAN_MOTION":15.50541927,"ECCENTRICITY":0.0002332,"INCLINATION":42.9998,"RA_OF_ASC_NODE":354.8289,"ARG_OF_PERICENTER":245.6532,"MEAN_ANOMALY":110.5512,"EPHEMERIS_TYPE":0,"CLASSIFICATION_TYPE":"U","NORAD_CAT_ID":68011,"ELEMENT_SET_NO":999,"REV_AT_EPOCH":448,"BSTAR":0.0012699,"MEAN_MOTION_DOT":0.00074775,"MEAN_MOTION_DDOT":0},{"OBJECT_NAME":"STARLINK-36936","OBJECT_ID":"2026-039AC","EPOCH":"2026-03-19T16:00:01.999584","MEAN_MOTION":15.57030883,"ECCENTRICITY":0.0001399,"INCLINATION":42.9995,"RA_OF_ASC_NODE":354.1572,"ARG_OF_PERICENTER":250.4903,"MEAN_ANOMALY":17.4958,"EPHEMERIS_TYPE":0,"CLASSIFICATION_TYPE":"U","NORAD_CAT_ID":68012,"ELEMENT_SET_NO":999,"REV_AT_EPOCH":448,"BSTAR":-0.028211,"MEAN_MOTION_DOT":-0.01855005,"MEAN_MOTION_DDOT":0},{"OBJECT_NAME":"STARLINK-36967","OBJECT_ID":"2026-039AD","EPOCH":"2026-03-19T16:00:01.999584","MEAN_MOTION":15.50529511,"ECCENTRICITY":0.000146,"INCLINATION":42.9996,"RA_OF_ASC_NODE":354.7544,"ARG_OF_PERICENTER":263.5968,"MEAN_ANOMALY":122.6155,"EPHEMERIS_TYPE":0,"CLASSIFICATION_TYPE":"U","NORAD_CAT_ID":68013,"ELEMENT_SET_NO":999,"REV_AT_EPOCH":448,"BSTAR":0.001348,"MEAN_MOTION_DOT":0.00079405,"MEAN_MOTION_DDOT":0},{"OBJECT_NAME":"STARLINK-36985","OBJECT_ID":"2026-039AE","EPOCH":"2026-03-19T16:00:01.999584","MEAN_MOTION":15.65189446,"ECCENTRICITY":0.0001553,"INCLINATION":42.9994,"RA_OF_ASC_NODE":353.8042,"ARG_OF_PERICENTER":261.0634,"MEAN_ANOMALY":148.9861,"EPHEMERIS_TYPE":0,"CLASSIFICATION_TYPE":"U","NORAD_CAT_ID":68014,"ELEMENT_SET_NO":999,"REV_AT_EPOCH":448,"BSTAR":-0.021076,"MEAN_MOTION_DOT":-0.01900255,"MEAN_MOTION_DDOT":0},{"OBJECT_NAME":"STARLINK-36335","OBJECT_ID":"2026-040A","EPOCH":"2026-03-19T16:00:01.999584","MEAN_MOTION":15.80458343,"ECCENTRICITY":0.0001561,"INCLINATION":97.2778,"RA_OF_ASC_NODE":27.5936,"ARG_OF_PERICENTER":112.7123,"MEAN_ANOMALY":305.9618,"EPHEMERIS_TYPE":0,"CLASSIFICATION_TYPE":"U","NORAD_CAT_ID":68015,"ELEMENT_SET_NO":999,"REV_AT_EPOCH":398,"BSTAR":-0.011633,"MEAN_MOTION_DOT":-0.01913784,"MEAN_MOTION_DDOT":0}]
